1 50806U 22001D   23077.94695822  .00003489  00000-0  23719-3 0  9997
2 50806  53.2173 357.7029 0001265  95.0351 265.0785 15.08841327 66488
1 50806U 22001D   23078.14567760  .00011028  00000-0  70969-3 0  9996
2 50806  53.2170 356.8108 0001427  89.5968 270.5188 15.08850828 67783
1 50806U 22001D   23078.47687909  .00013940  00000-0  89198-3 0  9999
2 50806  53.2171 355.3233 0001736  77.1039 283.0147 15.08850028 66563
1 50806U 22001D   23078.47687909  .00013940  00000-0  89198-3 0  9999
2 50806  53.2171 355.3233 0001736  77.1039 283.0147 15.08850028 67834
1 50806U 22001D   23079.47047392  .00004535  00000-0  30276-3 0  9999
2 50806  53.2165 350.8629 0001726  68.6388 291.4788 15.08849019 66715
1 50806U 22001D   23079.47047392  .00004535  00000-0  30276-3 0  9999
2 50806  53.2165 350.8629 0001726  68.6388 291.4788 15.08849019 67985
1 50806U 22001D   23080.13287146  .00013806  00000-0  88342-3 0  9995
2 50806  53.2164 347.8882 0001461  68.4610 291.6538 15.08857168 66813
1 50806U 22001D   23080.92775635  .00006925  00000-0  45269-3 0  9992
2 50806  53.2166 344.3191 0001773  84.6720 275.4474 15.08845131 66937
1 50806U 22001D   23081.12647385  .00014957  00000-0  95537-3 0  9992
2 50806  53.2171 343.4291 0001291  76.4043 283.7093 15.08858077 68233
1 50806U 22001D   23081.85511479  .00023905  00000-0  15144-2 0  9994
2 50806  53.2161 340.1575 0001204  77.2661 282.8466 15.08854616 68341
1 50806U 22001D   23081.92135398  .00030526  00000-0  19265-2 0  9999
2 50806  53.2163 339.8610 0001061  95.8746 264.2367 15.08864665 67088
1 50806U 22001D   23082.12007141  .00026012  00000-0  16451-2 0  9995
2 50806  53.2163 338.9688 0001201  77.7836 282.3290 15.08869586 67115
1 50806U 22001D   23082.84872027  .00033946  00000-0  21401-2 0  9992
2 50806  53.2167 335.6979 0001229  95.5452 264.5680 15.08850420 68492
1 50806U 22001D   23082.91495944  .00036325  00000-0  22878-2 0  9992
2 50806  53.2165 335.4002 0001228  95.1954 264.9179 15.08854338 67237
1 50806U 22001D   23083.11367796  .00046727  00000-0  29320-2 0  9994
2 50806  53.2164 334.5074 0001289  64.3865 295.7260 15.08873144 67263
1 50806U 22001D   23083.11367796  .00046727  00000-0  29320-2 0  9994
2 50806  53.2164 334.5074 0001289  64.3865 295.7260 15.08873144 68534
1 50806U 22001D   23083.84230053  .00032098  00000-0  20224-2 0  9999
2 50806  53.2162 331.2364 0001254  75.5607 284.5524 15.08899441 68647
1 50806U 22001D   23083.90853795  .00018157  00000-0  11543-2 0  9994
2 50806  53.2165 330.9359 0001384  62.7757 297.3376 15.08892945 67387
1 50806U 22001D   23084.83591451  .00005036  00000-0  33458-3 0  9997
2 50806  53.2157 326.7736 0001079  92.4189 267.6927 15.08807774 68794
1 50806U 22001D   23084.90215507 -.00008344  00000-0 -50712-3 0  9999
2 50806  53.2161 326.4798 0001073  89.7109 270.4006 15.08815498 67532
1 50806U 22001D   23085.10088431 -.00010289  00000-0 -63013-3 0  9995
2 50806  53.2164 325.5862 0001263  93.0193 267.0943 15.08792034 68835
1 50806U 22001D   23085.82953107 -.00001446  00000-0 -72867-4 0  9998
2 50806  53.2151 322.3162 0001062 101.2749 258.8362 15.08807480 68942
1 50806U 22001D   23085.89577729 -.00001652  00000-0 -85754-4 0  9995
2 50806  53.2137 322.0199 0001131  95.1868 264.9253 15.08821829 67683
1 50806U 22001D   23086.09449604  .00010251  00000-0  66150-3 0  9999
2 50806  53.2151 321.1258 0001241  97.8296 262.2837 15.08822971 67713
1 50806U 22001D   23086.09449604  .00010251  00000-0  66150-3 0  9999
2 50806  53.2151 321.1258 0001241  97.8296 262.2837 15.08822971 68983
1 50806U 22001D   23086.88937326  .00014372  00000-0  91881-3 0  9996
2 50806  53.2148 317.5585 0001138  89.7333 270.3790 15.08856608 67833
1 50806U 22001D   23086.88937326  .00014372  00000-0  91881-3 0  9996
2 50806  53.2148 317.5585 0001138  89.7333 270.3790 15.08856608 69105
1 50806U 22001D   23087.02184651  .00022121  00000-0  14020-2 0  9998
2 50806  53.2148 316.9626 0001098 100.4180 259.6936 15.08882388 67856
1 50806U 22001D   23087.02184651  .00022121  00000-0  14020-2 0  9998
2 50806  53.2148 316.9626 0001098 100.4180 259.6936 15.08882388 69128
1 50806U 22001D   23087.61800545  .00009484  00000-0  61271-3 0  9998
2 50806  53.2153 314.2855 0001430  93.8586 266.2570 15.08866196 69211
1 50806U 22001D   23087.88296626  .00022837  00000-0  14475-2 0  9996
2 50806  53.2158 313.0960 0001506  83.7928 276.3236 15.08860609 67988
1 50806U 22001D   23088.01544287  .00016646  00000-0  10607-2 0  9995
2 50806  53.2156 312.5016 0001123  72.4004 287.7111 15.08868152 68000
1 50806U 22001D   23088.01544287  .00016646  00000-0  10607-2 0  9995
2 50806  53.2156 312.5016 0001123  72.4004 287.7111 15.08868152 69270
1 50806U 22001D   23088.87656763  .00028120  00000-0  17771-2 0  9991
2 50806  53.2158 308.6381 0000935  63.9238 296.1851 15.08856283 68138
1 50806U 22001D   23088.87656763  .00028120  00000-0  17771-2 0  9991
2 50806  53.2158 308.6381 0000935  63.9238 296.1851 15.08856283 69409
1 50806U 22001D   23089.87016537  .00024467  00000-0  15490-2 0  9997
2 50806  53.2159 304.1772 0001364  87.1581 272.9567 15.08865107 69558
1 50806U 22001D   23090.59880673  .00011941  00000-0  76691-3 0  9992
2 50806  53.2147 300.9048 0001004  69.0903 291.0196 15.08846337 69669
1 50806U 22001D   23090.99624451  .00005922  00000-0  38972-3 0  9998
2 50806  53.2152 299.1199 0001138  74.0094 286.1023 15.08850249 68453
1 50806U 22001D   23090.99624451  .00005922  00000-0  38972-3 0  9998
2 50806  53.2152 299.1199 0001138  74.0094 286.1023 15.08850249 69724
1 50806U 22001D   23091.72489067  .00001201  00000-0  93542-4 0  9993
2 50806  53.2151 295.8477 0001324  99.1055 261.0087 15.08832067 68568
1 50806U 22001D   23091.72489067  .00001201  00000-0  93542-4 0  9993
2 50806  53.2151 295.8477 0001324  99.1055 261.0087 15.08832067 69839
1 50806U 22001D   23092.58601338  .00006527  00000-0  42776-3 0  9993
2 50806  53.2154 291.9846 0001082  91.1416 268.9700 15.08842334 68692
1 50806U 22001D   23092.85097152  .00009088  00000-0  58819-3 0  9996
2 50806  53.2150 290.7956 0001077  94.1581 265.9534 15.08849504 68730
1 50806U 22001D   23092.85097152  .00009088  00000-0  58819-3 0  9996
2 50806  53.2150 290.7956 0001077  94.1581 265.9534 15.08849504 70003
1 50806U 22001D   23093.24841139  .00004653  00000-0  31021-3 0  9991
2 50806  53.2149 289.0096 0001508  94.6272 265.4892 15.08845379 68799
1 50806U 22001D   23093.24841139  .00004653  00000-0  31021-3 0  9991
2 50806  53.2149 289.0096 0001508  94.6272 265.4892 15.08845379 70062
1 50806U 22001D   23094.50696789  .00008219  00000-0  53368-3 0  9990
2 50806  53.2145 283.3596 0002044  91.4909 268.6317 15.08854591 68989
1 50806U 22001D   23094.50696789  .00008219  00000-0  53368-3 0  9990
2 50806  53.2145 283.3596 0002044  91.4909 268.6317 15.08854591 70252
1 50806U 22001D   23094.90440425  .00004775  00000-0  31784-3 0  9999
2 50806  53.2151 281.5755 0000316 125.4750 234.6272 15.08847134 69041
1 50806U 22001D   23095.23560921 -.00000473  00000-0 -11617-4 0  9997
2 50806  53.2123 280.0872 0001020  84.8647 275.2461 15.08835741 70369
1 50806U 22001D   23095.50057165 -.00000317  00000-0 -18022-5 0  9993
2 50806  53.2125 278.8972 0001209  85.9612 274.1518 15.08835834 69137
1 50806U 22001D   23095.76553248  .00001566  00000-0  11647-3 0  9993
2 50806  53.2134 277.7102 0001126  74.9712 285.1405 15.08834988 69177
1 50806U 22001D   23096.49417137 -.00001066  00000-0 -48900-4 0  9990
2 50806  53.2142 274.4390 0001258  77.8296 282.2837 15.08842718 69283
1 50806U 22001D   23096.49417137 -.00001066  00000-0 -48900-4 0  9990
2 50806  53.2142 274.4390 0001258  77.8296 282.2837 15.08842718 70555
1 50806U 22001D   23096.75913337  .00002370  00000-0  16696-3 0  9995
2 50806  53.2144 273.2491 0001419  80.5502 279.5650 15.08840194 69327
1 50806U 22001D   23097.48778804 -.00000947  00000-0 -41441-4 0  9991
2 50806  53.2143 269.9782 0000790  56.9776 303.1292 15.08823423 69436
1 50806U 22001D   23097.48778804 -.00000947  00000-0 -41441-4 0  9991
2 50806  53.2143 269.9782 0000790  56.9776 303.1292 15.08823423 70708
1 50806U 22001D   23098.48138269  .00002625  00000-0  18294-3 0  9999
2 50806  53.2123 265.5152 0001480  90.2336 269.8826 15.08841381 69587
1 50806U 22001D   23098.48138269  .00002625  00000-0  18294-3 0  9999
2 50806  53.2123 265.5152 0001480  90.2336 269.8826 15.08841381 70859
1 50806U 22001D   23099.14378832  .00002763  00000-0  19161-3 0  9992
2 50806  53.2173 262.5459 0001321  80.5811 279.5330 15.08836433 70956
1 50806U 22001D   23099.47498875  .00005614  00000-0  37065-3 0  9999
2 50806  53.2166 261.0566 0001032  94.7406 265.3704 15.08827619 69735
1 50806U 22001D   23099.73993997  .00003297  00000-0  22507-3 0  9993
2 50806  53.2172 259.8695 0000906  95.8372 264.2723 15.08845316 69770
1 50806U 22001D   23099.73993997  .00003297  00000-0  22507-3 0  9993
2 50806  53.2172 259.8695 0000906  95.8372 264.2723 15.08845316 71043
1 50806U 22001D   23100.46857620 -.00001599  00000-0 -82423-4 0  9997
2 50806  53.2161 256.5967 0000669  64.5887 295.5174 15.08844633 69884
1 50806U 22001D   23100.79976765  .00000080  00000-0  23093-4 0  9995
2 50806  53.2157 255.1080 0000895  90.3263 269.7832 15.08856110 69939
1 50806U 22001D   23100.79976765  .00000080  00000-0  23093-4 0  9995
2 50806  53.2157 255.1080 0000895  90.3263 269.7832 15.08856110 71202
1 50806U 22001D   23101.46217953  .00000317  00000-0  37989-4 0  9999
2 50806  53.2180 252.1363 0000988  97.8789 262.2316 15.08838645 70035
1 50806U 22001D   23101.46217953  .00000317  00000-0  37989-4 0  9999
2 50806  53.2180 252.1363 0000988  97.8789 262.2316 15.08838645 71306
1 50806U 22001D   23102.38953374  .00001013  00000-0  81740-4 0  9993
2 50806  53.2188 247.9729 0001245  94.1986 265.9148 15.08844338 70171
1 50806U 22001D   23102.78697548  .00000759  00000-0  65754-4 0  9998
2 50806  53.2187 246.1886 0001319  94.4188 265.6955 15.08841894 70238
1 50806U 22001D   23104.50921976 -.00000386  00000-0 -61693-5 0  9992
2 50806  53.2159 238.4591 0001649  74.4104 285.7070 15.08840916 70499
